STARLINK-30900          
1 58423U 23180X   26068.01068911 -.00003255  00000+0 -10881-3 0  9991
2 58423  43.0002  56.1942 0001163 267.6681  92.4038 15.27578512127411
ION SCV-017             
1 63230U 25052W   26068.71648816  .00006457  00000+0  24539-3 0  9998
2 63230  97.4016 324.7516 0023746  44.9875 315.3282 15.26881798 54851
